ONEWEB-0593             
1 54659U 22166T   26061.07348487  .00000056  00000+0  10518-3 0  9990
2 54659  87.9167 265.3393 0001453  92.3977 267.7323 13.21826562157391
ONEWEB-0594             
1 54660U 22166U   26061.09321784 -.00000029  00000+0 -10128-3 0  9994
2 54660  87.9166 265.3536 0001665  93.3922 266.7402 13.21827652157418
ONEWEB-0595             
1 54661U 22166V   26061.07018634  .00000106  00000+0  22414-3 0  9995
2 54661  87.9170 265.3301 0001787  90.7036 269.4302 13.21827185157382
ONEWEB-0596             
1 54662U 22166W   26061.11954595  .00000069  00000+0  13475-3 0  9991
2 54662  87.9169 265.3380 0001698  90.1952 269.9376 13.21827535157396
ONEWEB-0597             
1 54663U 22166X   26061.10146105  .00000033  00000+0  47280-4 0  9994
2 54663  87.9166 265.3466 0001499  86.1562 273.9743 13.21825895157390
ONEWEB-0600             
1 54664U 22166Y   26061.08334345  .00000003  00000+0 -23095-4 0  9993
2 54664  87.9166 265.3417 0001399  96.6489 263.4805 13.21828307157361
ONEWEB-0601             
1 54665U 22166Z   26061.07513322  .00000081  00000+0  16385-3 0  9995
2 54665  87.9165 265.3606 0001378  82.4625 277.6665 13.21825889157557
ONEWEB-0602             
1 54666U 22166AA  26061.11543695  .00000077  00000+0  15433-3 0  9995
2 54666  87.9169 265.3575 0001371  99.3569 260.7720 13.21826667157408
ONEWEB-0603             
1 54667U 22166AB  26061.12119236  .00000094  00000+0  19528-3 0  9995
2 54667  87.9178 265.3019 0001455  88.0158 272.1142 13.21827003157336
ONEWEB-0604             
1 54668U 22166AC  26061.10967549  .00000044  00000+0  75162-4 0  9994
2 54668  87.9175 265.3188 0001657  92.0246 268.1078 13.21826970157298
ONEWEB-0605             
1 54669U 22166AD  26061.02739169 -.00000015  00000+0 -68981-4 0  9992
2 54669  87.9163 265.3597 0001520  67.6755 292.4540 13.21827918157356
ONEWEB-0606             
1 54670U 22166AE  26061.04880295  .00000069  00000+0  13468-3 0  9999
2 54670  87.9166 265.3683 0001771  90.8248 269.3089 13.21826457157415
ONEWEB-0607             
1 54671U 22166AF  26061.09159366 -.00000002  00000+0 -36469-4 0  9999
2 54671  87.9170 265.3238 0001439  87.7571 272.3727 13.21825688157397
ONEWEB-0608             
1 54672U 22166AG  26061.09816044  .00000068  00000+0  13383-3 0  9992
2 54672  87.9177 265.3156 0001293  71.3553 288.7721 13.21827299157408
ONEWEB-0610             
1 54673U 22166AH  26061.07840486  .00000022  00000+0  22930-4 0  9997
2 54673  87.9166 265.3451 0001094  71.4763 288.6490 13.21826108157307
ONEWEB-0611             
1 54674U 22166AJ  26061.07184582  .00000082  00000+0  16697-3 0  9994
2 54674  87.9165 265.3431 0001692  94.7422 265.3905 13.21827788157295
ONEWEB-0612             
1 54675U 22166AK  26061.08501258 -.00000024  00000+0 -89470-4 0  9997
2 54675  87.9176 265.3237 0001481  87.5135 272.6168 13.21825888157289
