[{"OBJECT_NAME":"ONEWEB-0593","OBJECT_ID":"2022-166T","EPOCH":"2026-03-02T01:45:49.092768","MEAN_MOTION":13.21826562,"ECCENTRICITY":0.0001453,"INCLINATION":87.9167,"RA_OF_ASC_NODE":265.3393,"ARG_OF_PERICENTER":92.3977,"MEAN_ANOMALY":267.7323,"EPHEMERIS_TYPE":0,"CLASSIFICATION_TYPE":"U","NORAD_CAT_ID":54659,"ELEMENT_SET_NO":999,"REV_AT_EPOCH":15739,"BSTAR":0.00010518,"MEAN_MOTION_DOT":5.6e-7,"MEAN_MOTION_DDOT":0},{"OBJECT_NAME":"ONEWEB-0594","OBJECT_ID":"2022-166U","EPOCH":"2026-03-02T02:14:14.021376","MEAN_MOTION":13.21827652,"ECCENTRICITY":0.0001665,"INCLINATION":87.9166,"RA_OF_ASC_NODE":265.3536,"ARG_OF_PERICENTER":93.3922,"MEAN_ANOMALY":266.7402,"EPHEMERIS_TYPE":0,"CLASSIFICATION_TYPE":"U","NORAD_CAT_ID":54660,"ELEMENT_SET_NO":999,"REV_AT_EPOCH":15741,"BSTAR":-0.00010128,"MEAN_MOTION_DOT":-2.9e-7,"MEAN_MOTION_DDOT":0},{"OBJECT_NAME":"ONEWEB-0595","OBJECT_ID":"2022-166V","EPOCH":"2026-03-02T01:41:04.099776","MEAN_MOTION":13.21827185,"ECCENTRICITY":0.0001787,"INCLINATION":87.917,"RA_OF_ASC_NODE":265.3301,"ARG_OF_PERICENTER":90.7036,"MEAN_ANOMALY":269.4302,"EPHEMERIS_TYPE":0,"CLASSIFICATION_TYPE":"U","NORAD_CAT_ID":54661,"ELEMENT_SET_NO":999,"REV_AT_EPOCH":15738,"BSTAR":0.00022414,"MEAN_MOTION_DOT":1.06e-6,"MEAN_MOTION_DDOT":0},{"OBJECT_NAME":"ONEWEB-0596","OBJECT_ID":"2022-166W","EPOCH":"2026-03-02T02:52:08.770080","MEAN_MOTION":13.21827535,"ECCENTRICITY":0.0001698,"INCLINATION":87.9169,"RA_OF_ASC_NODE":265.338,"ARG_OF_PERICENTER":90.1952,"MEAN_ANOMALY":269.9376,"EPHEMERIS_TYPE":0,"CLASSIFICATION_TYPE":"U","NORAD_CAT_ID":54662,"ELEMENT_SET_NO":999,"REV_AT_EPOCH":15739,"BSTAR":0.00013475,"MEAN_MOTION_DOT":6.9e-7,"MEAN_MOTION_DDOT":0},{"OBJECT_NAME":"ONEWEB-0597","OBJECT_ID":"2022-166X","EPOCH":"2026-03-02T02:26:06.234720","MEAN_MOTION":13.21825895,"ECCENTRICITY":0.0001499,"INCLINATION":87.9166,"RA_OF_ASC_NODE":265.3466,"ARG_OF_PERICENTER":86.1562,"MEAN_ANOMALY":273.9743,"EPHEMERIS_TYPE":0,"CLASSIFICATION_TYPE":"U","NORAD_CAT_ID":54663,"ELEMENT_SET_NO":999,"REV_AT_EPOCH":15739,"BSTAR":4.728e-5,"MEAN_MOTION_DOT":3.3e-7,"MEAN_MOTION_DDOT":0},{"OBJECT_NAME":"ONEWEB-0600","OBJECT_ID":"2022-166Y","EPOCH":"2026-03-02T02:00:00.874080","MEAN_MOTION":13.21828307,"ECCENTRICITY":0.0001399,"INCLINATION":87.9166,"RA_OF_ASC_NODE":265.3417,"ARG_OF_PERICENTER":96.6489,"MEAN_ANOMALY":263.4805,"EPHEMERIS_TYPE":0,"CLASSIFICATION_TYPE":"U","NORAD_CAT_ID":54664,"ELEMENT_SET_NO":999,"REV_AT_EPOCH":15736,"BSTAR":-2.3095e-5,"MEAN_MOTION_DOT":3.0e-8,"MEAN_MOTION_DDOT":0},{"OBJECT_NAME":"ONEWEB-0601","OBJECT_ID":"2022-166Z","EPOCH":"2026-03-02T01:48:11.510208","MEAN_MOTION":13.21825889,"ECCENTRICITY":0.0001378,"INCLINATION":87.9165,"RA_OF_ASC_NODE":265.3606,"ARG_OF_PERICENTER":82.4625,"MEAN_ANOMALY":277.6665,"EPHEMERIS_TYPE":0,"CLASSIFICATION_TYPE":"U","NORAD_CAT_ID":54665,"ELEMENT_SET_NO":999,"REV_AT_EPOCH":15755,"BSTAR":0.00016385,"MEAN_MOTION_DOT":8.1e-7,"MEAN_MOTION_DDOT":0},{"OBJECT_NAME":"ONEWEB-0602","OBJECT_ID":"2022-166AA","EPOCH":"2026-03-02T02:46:13.752480","MEAN_MOTION":13.21826667,"ECCENTRICITY":0.0001371,"INCLINATION":87.9169,"RA_OF_ASC_NODE":265.3575,"ARG_OF_PERICENTER":99.3569,"MEAN_ANOMALY":260.772,"EPHEMERIS_TYPE":0,"CLASSIFICATION_TYPE":"U","NORAD_CAT_ID":54666,"ELEMENT_SET_NO":999,"REV_AT_EPOCH":15740,"BSTAR":0.00015433,"MEAN_MOTION_DOT":7.7e-7,"MEAN_MOTION_DDOT":0},{"OBJECT_NAME":"ONEWEB-0603","OBJECT_ID":"2022-166AB","EPOCH":"2026-03-02T02:54:31.019904","MEAN_MOTION":13.21827003,"ECCENTRICITY":0.0001455,"INCLINATION":87.9178,"RA_OF_ASC_NODE":265.3019,"ARG_OF_PERICENTER":88.0158,"MEAN_ANOMALY":272.1142,"EPHEMERIS_TYPE":0,"CLASSIFICATION_TYPE":"U","NORAD_CAT_ID":54667,"ELEMENT_SET_NO":999,"REV_AT_EPOCH":15733,"BSTAR":0.00019528,"MEAN_MOTION_DOT":9.4e-7,"MEAN_MOTION_DDOT":0},{"OBJECT_NAME":"ONEWEB-0604","OBJECT_ID":"2022-166AC","EPOCH":"2026-03-02T02:37:55.962336","MEAN_MOTION":13.2182697,"ECCENTRICITY":0.0001657,"INCLINATION":87.9175,"RA_OF_ASC_NODE":265.3188,"ARG_OF_PERICENTER":92.0246,"MEAN_ANOMALY":268.1078,"EPHEMERIS_TYPE":0,"CLASSIFICATION_TYPE":"U","NORAD_CAT_ID":54668,"ELEMENT_SET_NO":999,"REV_AT_EPOCH":15729,"BSTAR":7.5162e-5,"MEAN_MOTION_DOT":4.4e-7,"MEAN_MOTION_DDOT":0},{"OBJECT_NAME":"ONEWEB-0605","OBJECT_ID":"2022-166AD","EPOCH":"2026-03-02T00:39:26.642016","MEAN_MOTION":13.21827918,"ECCENTRICITY":0.000152,"INCLINATION":87.9163,"RA_OF_ASC_NODE":265.3597,"ARG_OF_PERICENTER":67.6755,"MEAN_ANOMALY":292.454,"EPHEMERIS_TYPE":0,"CLASSIFICATION_TYPE":"U","NORAD_CAT_ID":54669,"ELEMENT_SET_NO":999,"REV_AT_EPOCH":15735,"BSTAR":-6.8981e-5,"MEAN_MOTION_DOT":-1.5e-7,"MEAN_MOTION_DDOT":0},{"OBJECT_NAME":"ONEWEB-0606","OBJECT_ID":"2022-166AE","EPOCH":"2026-03-02T01:10:16.574880","MEAN_MOTION":13.21826457,"ECCENTRICITY":0.0001771,"INCLINATION":87.9166,"RA_OF_ASC_NODE":265.3683,"ARG_OF_PERICENTER":90.8248,"MEAN_ANOMALY":269.3089,"EPHEMERIS_TYPE":0,"CLASSIFICATION_TYPE":"U","NORAD_CAT_ID":54670,"ELEMENT_SET_NO":999,"REV_AT_EPOCH":15741,"BSTAR":0.00013468,"MEAN_MOTION_DOT":6.9e-7,"MEAN_MOTION_DDOT":0},{"OBJECT_NAME":"ONEWEB-0607","OBJECT_ID":"2022-166AF","EPOCH":"2026-03-02T02:11:53.692224","MEAN_MOTION":13.21825688,"ECCENTRICITY":0.0001439,"INCLINATION":87.917,"RA_OF_ASC_NODE":265.3238,"ARG_OF_PERICENTER":87.7571,"MEAN_ANOMALY":272.3727,"EPHEMERIS_TYPE":0,"CLASSIFICATION_TYPE":"U","NORAD_CAT_ID":54671,"ELEMENT_SET_NO":999,"REV_AT_EPOCH":15739,"BSTAR":-3.6469e-5,"MEAN_MOTION_DOT":-2.0e-8,"MEAN_MOTION_DDOT":0},{"OBJECT_NAME":"ONEWEB-0608","OBJECT_ID":"2022-166AG","EPOCH":"2026-03-02T02:21:21.062016","MEAN_MOTION":13.21827299,"ECCENTRICITY":0.0001293,"INCLINATION":87.9177,"RA_OF_ASC_NODE":265.3156,"ARG_OF_PERICENTER":71.3553,"MEAN_ANOMALY":288.7721,"EPHEMERIS_TYPE":0,"CLASSIFICATION_TYPE":"U","NORAD_CAT_ID":54672,"ELEMENT_SET_NO":999,"REV_AT_EPOCH":15740,"BSTAR":0.00013383,"MEAN_MOTION_DOT":6.8e-7,"MEAN_MOTION_DDOT":0},{"OBJECT_NAME":"ONEWEB-0610","OBJECT_ID":"2022-166AH","EPOCH":"2026-03-02T01:52:54.179904","MEAN_MOTION":13.21826108,"ECCENTRICITY":0.0001094,"INCLINATION":87.9166,"RA_OF_ASC_NODE":265.3451,"ARG_OF_PERICENTER":71.4763,"MEAN_ANOMALY":288.649,"EPHEMERIS_TYPE":0,"CLASSIFICATION_TYPE":"U","NORAD_CAT_ID":54673,"ELEMENT_SET_NO":999,"REV_AT_EPOCH":15730,"BSTAR":2.293e-5,"MEAN_MOTION_DOT":2.2e-7,"MEAN_MOTION_DDOT":0},{"OBJECT_NAME":"ONEWEB-0611","OBJECT_ID":"2022-166AJ","EPOCH":"2026-03-02T01:43:27.478848","MEAN_MOTION":13.21827788,"ECCENTRICITY":0.0001692,"INCLINATION":87.9165,"RA_OF_ASC_NODE":265.3431,"ARG_OF_PERICENTER":94.7422,"MEAN_ANOMALY":265.3905,"EPHEMERIS_TYPE":0,"CLASSIFICATION_TYPE":"U","NORAD_CAT_ID":54674,"ELEMENT_SET_NO":999,"REV_AT_EPOCH":15729,"BSTAR":0.00016697,"MEAN_MOTION_DOT":8.2e-7,"MEAN_MOTION_DDOT":0},{"OBJECT_NAME":"ONEWEB-0612","OBJECT_ID":"2022-166AK","EPOCH":"2026-03-02T02:02:25.086912","MEAN_MOTION":13.21825888,"ECCENTRICITY":0.0001481,"INCLINATION":87.9176,"RA_OF_ASC_NODE":265.3237,"ARG_OF_PERICENTER":87.5135,"MEAN_ANOMALY":272.6168,"EPHEMERIS_TYPE":0,"CLASSIFICATION_TYPE":"U","NORAD_CAT_ID":54675,"ELEMENT_SET_NO":999,"REV_AT_EPOCH":15728,"BSTAR":-8.947e-5,"MEAN_MOTION_DOT":-2.4e-7,"MEAN_MOTION_DDOT":0}]
